YAOGAN-43 01D           
1 60461U 24148D   26068.43560480  .00010676  00000+0  37766-3 0  9999
2 60461  35.0010  61.7102 0002556 326.2473  33.8080 15.28369377 87008
STARLINK-32725          
1 62505U 25003U   26068.01837789  .00027741  00000+0  10131-2 0  9991
2 62505  42.9993 292.3326 0001186 247.7470 112.3256 15.27605123 66453
